     2.100          NAVIGATION                              RINEX VERSION / TYPE
fic2rin                                 02/06/2017 00:05:24 PGM / RUN BY / DATE
                                                            END OF HEADER
30 17  2  5 18  0  0.0  .160621944815D-03  .113686837722D-12  .000000000000D+00
     .670000000000D+02  .948125000000D+02  .478162774542D-08  .100839072526D+01
     .496022403240D-05  .242496537976D-02  .729225575924D-05  .515372258377D+04
     .648000000000D+05  .428408384323D-07  .268811638428D+01  .316649675369D-07
     .949450654076D+00  .229468750000D+03  .307541380774D+01 -.829070248389D-08
    -.446447167745D-10  .100000000000D+01  .193500000000D+04  .000000000000D+00
     .240000000000D+01  .000000000000D+00  .372529029846D-08  .670000000000D+02
     .576060000000D+05  .400000000000D+01
31 17  2  5 18  0  0.0  .220829155296D-03 -.227373675443D-11  .000000000000D+00
     .830000000000D+02  .837187500000D+02  .439232581514D-08  .789061329286D+00
     .439397990704D-05  .853701122105D-02  .818260014057D-05  .515364422417D+04
     .648000000000D+05  .150874257088D-06  .265805842385D+01 -.745058059692D-08
     .968459068436D+00  .220500000000D+03 -.292355870230D+00 -.804676375144D-08
    -.478591363823D-10  .100000000000D+01  .193500000000D+04  .000000000000D+00
     .240000000000D+01  .000000000000D+00 -.135041773319D-07  .830000000000D+02
     .576060000000D+05  .400000000000D+01
32 17  2  5 18  0  0.0 -.309011433274D-03 -.140971678775D-10  .000000000000D+00
     .800000000000D+01 -.406250000000D+00  .466412285087D-08 -.161967155085D+01
     .106170773506D-06  .735002686270D-03  .102259218693D-04  .515369128036D+04
     .648000000000D+05 -.391155481339D-07  .157157944147D+01 -.391155481339D-07
     .958053888047D+00  .181375000000D+03 -.281132849146D+01 -.799533303771D-08
    -.384658879729D-09  .100000000000D+01  .193500000000D+04  .000000000000D+00
     .240000000000D+01  .000000000000D+00  .465661287308D-09  .800000000000D+01
     .576060000000D+05  .400000000000D+01
 1 17  2  5 20  0  0.0  .485652126372D-04  .909494701773D-12  .000000000000D+00
     .360000000000D+02 -.240937500000D+02  .419338895720D-08  .267038955491D+01
    -.116229057312D-05  .620559381787D-02  .961869955063D-05  .515369706917D+04
     .720000000000D+05 -.502914190292D-07 -.510182773263D+00 -.145286321640D-06
     .966745919682D+00  .197656250000D+03  .544129585410D+00 -.781211112007D-08
     .448232956416D-09  .100000000000D+01  .193500000000D+04  .000000000000D+00
     .240000000000D+01  .000000000000D+00  .512227416039D-08  .360000000000D+02
     .648060000000D+05  .400000000000D+01
 2 17  2  5 20  0  0.0  .481019262224D-03 -.670752342558D-11  .000000000000D+00
     .121000000000D+03 -.252500000000D+02  .456161858115D-08  .308111208578D+01
    -.133365392685D-05  .165754378540D-01  .984035432339D-05  .515373114967D+04
     .720000000000D+05  .856816768646D-07 -.561169503054D+00 -.130385160446D-06
     .945602632397D+00  .177656250000D+03 -.202662718909D+01 -.779603902203D-08
     .461090634847D-09  .100000000000D+01  .193500000000D+04  .000000000000D+00
     .240000000000D+01  .000000000000D+00 -.204890966415D-07  .121000000000D+03
     .648060000000D+05  .400000000000D+01
 3 17  2  5 20  0  0.0 -.107160769403D-03 -.454747350886D-12  .000000000000D+00
     .370000000000D+02 -.815625000000D+01  .487556022951D-08  .167667119579D+01
    -.551342964172D-06  .473017920740D-03  .624917447567D-05  .515379953194D+04
     .720000000000D+05  .167638063431D-07  .531516005832D+00  .633299350739D-07
     .959797415758D+00  .255000000000D+03  .481840907911D+00 -.823141430002D-08
     .168578450541D-09  .100000000000D+01  .193500000000D+04  .000000000000D+00
     .240000000000D+01  .000000000000D+00  .186264514923D-08  .370000000000D+02
     .648060000000D+05  .400000000000D+01
 5 17  2  5 20  0  0.0 -.622463412583D-04  .204636307899D-11  .000000000000D+00
     .420000000000D+02 -.110937500000D+02  .515628620859D-08 -.672628931615D+00
    -.424683094025D-06  .490012986120D-02  .662356615067D-05  .515367360115D+04
     .720000000000D+05  .521540641785D-07  .516183161443D+00  .428408384323D-07
     .946795925896D+00  .241250000000D+03  .559227445656D+00 -.838642075666D-08
     .122862260563D-09  .100000000000D+01  .193500000000D+04  .000000000000D+00
     .240000000000D+01  .000000000000D+00 -.107102096081D-07  .420000000000D+02
     .648060000000D+05  .400000000000D+01
 6 17  2  5 20  0  0.0  .308706890792D-03  .500222085975D-11  .000000000000D+00
     .620000000000D+02 -.220937500000D+02  .426053461123D-08  .297962834242D+01
    -.107847154140D-05  .618352903984D-03  .958330929279D-05  .515361459541D+04
     .720000000000D+05 -.819563865662D-07 -.518566663149D+00 -.149011611938D-07
     .966533547865D+00  .198250000000D+03 -.135766308670D+01 -.786354183380D-08
     .408588447920D-09  .100000000000D+01  .193500000000D+04  .000000000000D+00
     .240000000000D+01  .000000000000D+00  .419095158577D-08  .620000000000D+02
     .648060000000D+05  .400000000000D+01
 7 17  2  5 20  0  0.0  .385552644730D-03 -.375166564481D-11  .000000000000D+00
     .140000000000D+02  .875312500000D+02  .445839999597D-08  .205265022396D+01
     .457279384136D-05  .101269572042D-01  .844523310661D-05  .515361484909D+04
     .720000000000D+05 -.305473804474D-06  .264753964056D+01  .260770320892D-07
     .963677437308D+00  .221156250000D+03 -.261530599326D+01 -.806426448041D-08
     .182150444440D-10  .100000000000D+01  .193500000000D+04  .000000000000D+00
     .240000000000D+01  .000000000000D+00 -.111758708954D-07  .140000000000D+02
     .648060000000D+05  .400000000000D+01
 8 17  2  5 20  0  0.0 -.485219061375D-04 -.136424205266D-11  .000000000000D+00
     .630000000000D+02 -.896562500000D+02  .430125059292D-08 -.799953728689D+00
    -.465475022793D-05  .248048419598D-02  .688992440701D-05  .515358361816D+04
     .720000000000D+05 -.119209289551D-06 -.157271420801D+01  .167638063431D-07
     .965519327241D+00  .252500000000D+03 -.880009948564D+00 -.806069290307D-08
    -.103218585183D-09  .100000000000D+01  .193500000000D+04  .000000000000D+00
     .240000000000D+01  .000000000000D+00  .465661287308D-08  .630000000000D+02
     .648060000000D+05  .400000000000D+01
 9 17  2  5 20  0  0.0  .297818798572D-03  .750333128963D-11  .000000000000D+00
     .520000000000D+02  .578125000000D+01  .483198698594D-08 -.129241854080D+01
     .340864062309D-06  .925141270272D-03  .970065593719D-05  .515369592857D+04
     .720000000000D+05 -.931322574615D-08  .156887698998D+01  .353902578354D-07
     .953525717716D+00  .193062500000D+03  .175847289929D+01 -.809783730743D-08
    -.288226291496D-09  .100000000000D+01  .193500000000D+04  .000000000000D+00
     .240000000000D+01  .000000000000D+00  .139698386192D-08  .520000000000D+02
     .648060000000D+05  .400000000000D+01
10 17  2  5 20  0  0.0 -.108339358121D-03  .329691829393D-11  .000000000000D+00
     .460000000000D+02 -.503125000000D+01  .490734726785D-08  .586301979225D+00
    -.255182385445D-06  .219611776993D-02  .660307705402D-05  .515366702461D+04
     .720000000000D+05  .931322574615D-08  .527725845488D+00  .484287738800D-07
     .959989540789D+00  .251437500000D+03 -.289835420667D+01 -.819319842246D-08
     .126790995640D-09  .100000000000D+01  .193500000000D+04  .000000000000D+00
     .240000000000D+01  .000000000000D+00  .232830643654D-08  .460000000000D+02
     .648060000000D+05  .400000000000D+01
11 17  2  5 20  0  0.0 -.668645370752D-03 -.147792889038D-11  .000000000000D+00
     .520000000000D+02 -.626562500000D+02  .557380359986D-08  .207892350266D+01
    -.328198075294D-05  .166368981590D-01  .893883407116D-05  .515370099068D+04
     .720000000000D+05  .353902578354D-06 -.904932092225D+00 -.158324837685D-06
     .899626499432D+00  .171843750000D+03  .161657404564D+01 -.833463288520D-08
     .221437795202D-09  .100000000000D+01  .193500000000D+04  .000000000000D+00
     .240000000000D+01  .000000000000D+00 -.121071934700D-07  .520000000000D+02
     .648060000000D+05  .400000000000D+01
12 17  2  5 20  0  0.0  .388391781598D-03 -.341060513165D-12  .000000000000D+00
     .790000000000D+02  .587500000000D+01  .410267089271D-08  .145677256961D+01
     .249594449997D-06  .637826102320D-02  .360980629921D-05  .515358941078D+04
     .720000000000D+05 -.169500708580D-06 -.255436940170D+01  .838190317154D-07
     .989840701650D+00  .325500000000D+03  .788580099458D+00 -.821534220198D-08
    -.154649298907D-09  .100000000000D+01  .193500000000D+04  .000000000000D+00
     .240000000000D+01  .000000000000D+00 -.121071934700D-07  .790000000000D+02
     .648060000000D+05  .400000000000D+01
13 17  2  5 20  0  0.0 -.684354454279D-04 -.181898940355D-11  .000000000000D+00
     .460000000000D+02  .265000000000D+02  .439054002647D-08  .308831986999D+01
     .126846134663D-05  .408531748690D-02  .995397567749D-05  .515368548775D+04
     .720000000000D+05  .108033418655D-06  .169348037029D+01  .372529029846D-07
     .969696068076D+00  .191968750000D+03  .184790648843D+01 -.780068207258D-08
    -.317156067966D-09  .100000000000D+01  .193500000000D+04  .000000000000D+00
     .240000000000D+01  .000000000000D+00 -.111758708954D-07  .460000000000D+02
     .648060000000D+05  .400000000000D+01
14 17  2  5 20  0  0.0 -.574989244342D-04 -.170530256582D-11  .000000000000D+00
     .830000000000D+02  .120000000000D+02  .451768817985D-08 -.185197122533D+01
     .679865479469D-06  .866609241348D-02  .104382634163D-04  .515362234497D+04
     .720000000000D+05  .141561031342D-06  .165475597783D+01 -.745058059692D-08
     .962202298011D+00  .176500000000D+03 -.195718868966D+01 -.782139722116D-08
    -.348585948575D-09  .100000000000D+01  .193500000000D+04  .000000000000D+00
     .240000000000D+01  .000000000000D+00 -.931322574615D-08  .830000000000D+02
     .648060000000D+05  .400000000000D+01
